STARS-AO
1 43679U 18084J   25184.78405805  .00004669  00000-0  28028-3 0  9995
2 43679  98.0753  13.0954 0000993 271.0553  89.0561 15.11458255364749
KAIDUN-1
1 41915U 17002C   25185.17681906  .00063091  00000-0  66344-3 0  9994
2 41915  97.1528 214.3275 0000760 209.0044 151.1173 15.64122196469825
CAS-4B (ZHUHAI-1 02)
1 42759U 17034B   25185.16908245  .00071589  00000-0  66607-3 0  9996
2 42759  43.0046 174.9960 0019028 102.9008 257.3984 15.66241789446452
CAS-4A (ZHUHAI-1 01)
1 42761U 17034D   25185.18083227  .00077126  00000-0  67441-3 0  9995
2 42761  43.0083 171.7931 0020118 108.1131 252.1929 15.67711461446481
EAGLESAT-1
1 43018U 17073F   25185.17124763  .00072933  00000-0  12125-2 0  9993
2 43018  97.5361  79.8696 0080680   6.5784 353.6505 15.48136324414302
LUOJIA-1 01
1 43485U 18048B   25185.19488628  .00001638  00000-0  19679-3 0  9995
2 43485  97.8426 263.8288 0009494 175.5484 184.5817 14.85296876382507
DIWATA-2B (PO-101)
1 43678U 18084H   25185.16368850  .00001932  00000-0  16717-3 0  9997
2 43678  98.1035   2.2266 0008341 194.7901 165.3078 14.98412458364066
ESHAIL-2
1 43700U 18090A   25184.92804931  .00000156  00000-0  00000-0 0  9990
2 43700   0.0149  52.6986 0002350  83.4708 145.8873  1.00272461 24180
K2SAT
1 43761U 18099D   25184.61694706  .00002552  00000-0  18689-3 0  9996
2 43761  97.4675 232.6870 0013334  95.8748 264.3999 15.04358280359661
AISTECHSAT-2
1 43768U 18099L   25184.83872139  .00003987  00000-0  24505-3 0  9992
2 43768  97.4808 235.5853 0006618  71.2825 288.9122 15.10606592359603
SNUSAT-2
1 43782U 18099AA  25184.78403326  .00005737  00000-0  31095-3 0  9997
2 43782  97.4583 239.1589 0013447  73.9508 286.3204 15.14901182360163
ITASAT-1
1 43786U 18099AE  25184.68449014  .00005282  00000-0  30051-3 0  9990
2 43786  97.4554 238.4997 0015840 120.8022 239.4771 15.13175051360101
IRVINE02
1 43789U 18099AH  25184.68575237  .00027906  00000-0  72202-3 0  9991
2 43789  97.4642 253.0539 0009321  63.3777 296.8422 15.39004494360719
EAGLET-1
1 43790U 18099AJ  25185.14952510  .00003687  00000-0  23527-3 0  9994
2 43790  97.4754 238.8295 0013723 104.3874 255.8879 15.09223299359778
ESEO
1 43792U 18099AL  25185.10689223  .00000611  00000-0  50056-4 0  9992
2 43792  97.4458 231.7252 0014855  79.8668 280.4232 15.02686973359503
CSIM-FD
1 43793U 18099AM  25183.47212575  .00111399  00000-0  58446-3 0  9999
2 43793  97.4768 263.2271 0004323 131.1159 229.0482 15.80443332361252
HIBER-2
1 43774U 18099S   25184.69917191  .00029546  00000-0  74838-3 0  9994
2 43774  97.4876 254.3153 0005786  63.3806 296.8032 15.39671486360899
MINXSS-2
1 43758U 18099A   25185.18152874  .00014183  00000-0  54692-3 0  9997
2 43758  97.5011 251.3050 0012913  74.3210 285.9452 15.26348859360725
FOX-1CLIFF (AO-95)
1 43770U 18099N   25184.85003121  .00007724  00000-0  38704-3 0  9993
2 43770  97.4900 242.6707 0012090 124.9513 235.2857 15.17580314360238
MOVE-II
1 43780U 18099Y   25185.15718627  .00796684  27939-3  19989-2 0  9998
2 43780  97.4637 262.9999 0008895 242.6350 117.4021 15.95651018361690
CORVUS-BC4
1 43767U 18099K   25184.55986907  .00003626  00000-0  23591-3 0  9993
2 43767  97.4573 232.6171 0010458 118.5362 241.6921 15.08544679359775
CZ-4B R/B
1 43656U 18081B   25184.67953037  .00000024  00000-0  24633-4 0  9990
2 43656  99.3936  69.5684 0205081 190.0642 169.6403 14.31655331349435
COSMOS 2504 [i]
1 40555U 15020D   25185.15044985  .00000241  00000-0  80562-4 0  9996
2 40555  82.5176 140.2382 0609864 140.0314 224.7426 13.61046858502844
MERIDIAN-4
1 37398U 11018A   25183.88251012 -.00000052  00000-0 -18106-2 0  9994
2 37398  62.1041 130.5345 7370067 261.1368  17.1105  2.00531734103750
MERIDIAN-6
1 38995U 12063A   25183.67425595 -.00000177  00000-0  00000-0 0  9994
2 38995  64.7388  43.5454 7248256 231.4090  38.6240  2.00727100 92496
MERIDIAN-7
1 40296U 14069A   25185.23468127  .00000203  00000-0  00000+0 0  9999
2 40296  63.4824 251.1206 6816692 272.3995  17.6578  2.00621904 78241
METOP-C
1 43689U 18087A   25185.13965040  .00000070  00000-0  52021-4 0  9994
2 43689  98.7144 245.1627 0002363  97.5616 262.5829 14.21493083345382
FENGYUN-3B
1 37214U 10059A   25185.21782593  .00000056  00000-0  52590-4 0  9996
2 37214  99.0113 223.8369 0023213  92.5275 346.8308 14.14735959758264
FENGYUN-3C
1 39260U 13052A   25185.24462402  .00000059  00000-0  50856-4 0  9998
2 39260  98.4551 170.9717 0013728 308.5005  51.4938 14.15633059609404
EWS-G1 (GOES-13)
1 29155U 06018A   25183.52585770 -.00000155  00000-0  00000-0 0  9997
2 29155   3.6223  80.7255 0060479 267.1158 240.1675  0.98792409 39794
FENGYUN-2H
1 43491U 18050A   25185.08135233 -.00000116  00000-0  00000+0 0  9999
2 43491   2.1335  83.2593 0001623 112.2225 195.1122  1.00276404 26029
FENGYUN-2G
1 40367U 14090A   25184.72849167 -.00000292  00000-0  00000+0 0  9991
2 40367   4.7560  77.0763 0003839 141.4453  65.2829  1.00266833 38540
INMARSAT 4-F1
1 28628U 05009A   25184.82840608  .00000041  00000-0  00000+0 0  9990
2 28628   4.7143  42.3195 0002028  65.0044 291.0784  1.00272871 74170
INMARSAT 4-F2
1 28899U 05044A   25184.58308735 -.00000253  00000-0  00000-0 0  9999
2 28899   4.6428  43.5273 0002084  62.5725 169.1450  1.00270947 72024
INMARSAT 4-F3
1 33278U 08039A   25185.11766770 -.00000130  00000-0  00000+0 0  9993
2 33278   4.0022  30.0076 0002508  81.7983 114.9306  1.00271790 61772
INMARSAT 4A-F4 (ALPHASAT)
1 39215U 13038A   25184.92787554  .00000144  00000-0  00000-0 0  9991
2 39215   2.9436   4.2382 0002015 118.2189 158.6512  1.00271910 40523
ASTROCAST
1 43798U 18099AS  25184.67195300  .00012773  00000-0  45212-3 0  9996
2 43798  97.4827 252.3295 0008123  40.7272 319.4574 15.29247975360850
JY1SAT (JO-97)
1 43803U 18099AX  25184.59617647  .00009142  00000-0  41155-3 0  9995
2 43803  97.4648 243.4628 0008703  68.8691 291.3474 15.21271090360426
SUOMI-100
1 43804U 18099AY  25185.11097784  .00008340  00000-0  40346-3 0  9999
2 43804  97.4714 243.1989 0013557  67.3527 292.9139 15.18765464360427
GEO-KOMPSAT-2A
1 43823U 18100A   25184.94837932 -.00000331  00000-0  00000+0 0  9992
2 43823   0.0358 162.8761 0002335 290.6668 298.3121  1.00269509 24171
UWE-4
1 43880U 18111E   25184.73373634  .00011419  00000-0  43964-3 0  9996
2 43880  97.5880  97.9784 0013641 121.1746 239.0832 15.26450279357310
D-STAR ONE SPARROW
1 43881U 18111F   25184.71635824  .00017320  00000-0  56343-3 0  9999
2 43881  97.6084 102.6259 0008234 139.7925 220.3927 15.31917441357486
METEOR M2-2
1 44387U 19038A   25185.22710482  .00000051  00000-0  42027-4 0  9999
2 44387  98.8753 163.1521 0000701   7.1881 352.9307 14.24213936311762
MOMENTUS-X1
1 44408U 19038Y   25184.58709880  .00014201  00000-0  30758-3 0  9990
2 44408  97.7179 198.9101 0012032 195.4444 164.6438 15.44487906332413
MERIDIAN-8
1 44453U 19046A   25184.30068290  .00000163  00000-0  00000-0 0  9998
2 44453  62.8438  94.2194 6938905 273.9069  16.0656  2.00611731 43347
TAURUS-1
1 44530U 19059C   25185.16148728  .00004508  00000-0  83049-3 0  9992
2 44530  98.6091 325.7280 0008041 323.7790  36.2867 14.66069783307543
GAOFEN 12-01
1 44819U 19082A   25185.21507689  .00000338  00000-0  50886-4 0  9990
2 44819  97.8129 195.7002 0004016  70.0316 290.1328 14.80419595302608
DUCHIFAT-3
1 44854U 19089C   25185.14195114  .00038855  00000-0  71277-3 0  9995
2 44854  36.9411 198.8051 0004652 180.2284 179.8472 15.48319726306750
CAS-6 (TO-108)
1 44881U 19093C   25185.21120630  .00000723  00000-0  89440-4 0  9994
2 44881  97.7919 260.3460 0014625 145.9967 214.2189 14.85641386299732
ELEKTRO-L3
1 44903U 19095A   25185.15214339 -.00000083  00000-0  00000+0 0  9994
2 44903   0.0954 138.8085 0000725   1.6674 272.7305  1.00270069 20194
DOSAAF-85 (RS-44)
1 44909U 19096E   25184.55524785  .00000011  00000-0  59631-5 0  9993
2 44909  82.5197 211.3493 0216411 239.3718 118.5886 12.79741569257755
MERIDIAN-9
1 45254U 20015A   25181.53486050 -.00000192  00000-0  00000-0 0  9999
2 45254  65.2950 357.3196 6939178 283.5832  13.0166  2.00604279 39231
ION-MK01
1 46274U 20061C   25185.18275071  .00023942  00000-0  39508-3 0  9992
2 46274  97.2414 253.0841 0003611 122.5804 237.5798 15.52266702268797
UPMSAT-2
1 46276U 20061E   25185.15707831  .00073825  00000-0  56811-3 0  9996
2 46276  97.2420 260.4190 0002212 150.0468 210.0922 15.71787086269322
DEKART
1 46493U 20068H   25184.90232134  .00008356  00000-0  31238-3 0  9998
2 46493  97.8583 167.2275 0013108  76.6487 283.6212 15.27543618262432
NORBY
1 46494U 20068J   25184.91340842  .00009349  00000-0  30315-3 0  9994
2 46494  97.8561 170.0127 0011717  68.9571 291.2921 15.32161458262615
SALSAT (TUBSAT 22)
1 46495U 20068K   25184.92742381  .00005509  00000-0  23700-3 0  9994
2 46495  97.8612 164.0863 0013078  80.2868 279.9844 15.23011115262230
NETSAT-4
1 46504U 20068U   25184.86162593  .00009722  00000-0  32806-3 0  9997
2 46504  97.8457 164.0707 0009016 113.0914 247.1277 15.30889598262265
NETSAT-3
1 46505U 20068V   25185.20504955  .00010538  00000-0  37207-3 0  9996
2 46505  97.8460 163.3164 0008681 121.2466 238.9625 15.29392654262275
NETSAT-1
1 46506U 20068W   25185.20442555  .00007537  00000-0  30944-3 0  9990
2 46506  97.8487 160.9617 0007937 133.8325 226.3569 15.24502727262117
NETSAT-2
1 46507U 20068X   25184.85811201  .00010457  00000-0  35670-3 0  9995
2 46507  97.8459 163.5390 0007024 132.7624 227.4208 15.30532107262205
ARKTIKA-M1
1 47719U 21016A   25183.58343377 -.00000020  00000-0  00000-0 0  9990
2 47719  63.1492 105.7038 7118736 268.6783  16.4615  2.00623169 31772
SIMBA
1 47941U 21022K   25185.17096022  .00025976  00000-0  52203-3 0  9994
2 47941  97.4198  90.2798 0008273 207.8593 152.2214 15.46590429236995
UNISAT-7
1 47945U 21022P   25184.71146366  .00007670  00000-0  26866-3 0  9991
2 47945  97.4189  83.2968 0009741 233.6109 126.4233 15.29724565236402
GRBALPHA
1 47959U 21022AD  25160.45426279  .07940347  25506-5  90589-3 0  9995
2 47959  97.3899  75.6235 0011032 227.2558 132.7812 16.36806138232695
